IRIDIUM 144             
1 43249U 18030A   23360.37943349  .00000517  00000+0  17766-3 0  9992
2 43249  86.3987 308.1397 0003348  68.5686 291.5867 14.34203761300599
IRIDIUM 149             
1 43250U 18030B   23360.38577877  .00000491  00000+0  16817-3 0  9991
2 43250  86.3965 308.1134 0002160  77.6597 282.4841 14.34217631300614
IRIDIUM 157             
1 43251U 18030C   23360.40480368  .00000434  00000+0  14784-3 0  9991
2 43251  86.3965 308.1386 0002256  93.0584 267.0870 14.34218602300595
IRIDIUM 140             
1 43252U 18030D   23360.35406419  .00000510  00000+0  17491-3 0  9994
2 43252  86.3965 308.1746 0002388  78.3217 281.8246 14.34223899300642
IRIDIUM 145             
1 43253U 18030E   23360.41114775  .00000503  00000+0  17249-3 0  9996
2 43253  86.3965 308.1250 0002102  78.7172 281.4260 14.34218006300580
IRIDIUM 146             
1 43254U 18030F   23360.39210629  .00000503  00000+0  17251-3 0  9992
2 43254  86.3965 308.1483 0002066  83.6509 276.4922 14.34213504300595
IRIDIUM 148             
1 43255U 18030G   23360.36040628  .00000360  00000+0  12165-3 0  9990
2 43255  86.3964 308.1908 0001804  86.0290 274.1112 14.34218540300625
IRIDIUM 142             
1 43256U 18030H   23360.39846473  .00000550  00000+0  18943-3 0  9997
2 43256  86.3965 308.0972 0002133  86.3208 273.8232 14.34215390300590
